[{"OBJECT_NAME":"STARLINK-31117","OBJECT_ID":"2024-011M","EPOCH":"2026-03-09T03:27:08.534592","MEAN_MOTION":15.30189861,"ECCENTRICITY":0.00010903,"INCLINATION":53.1623,"RA_OF_ASC_NODE":16.4221,"ARG_OF_PERICENTER":73.5689,"MEAN_ANOMALY":286.5432,"EPHEMERIS_TYPE":0,"CLASSIFICATION_TYPE":"U","NORAD_CAT_ID":58776,"ELEMENT_SET_NO":999,"REV_AT_EPOCH":12018,"BSTAR":3.6721194e-5,"MEAN_MOTION_DOT":7.28e-6,"MEAN_MOTION_DDOT":0},{"OBJECT_NAME":"OBJECT A","OBJECT_ID":"2025-013A","EPOCH":"2026-03-09T23:29:31.895232","MEAN_MOTION":15.29260221,"ECCENTRICITY":0.0010321,"INCLINATION":97.6364,"RA_OF_ASC_NODE":244.5149,"ARG_OF_PERICENTER":282.3775,"MEAN_ANOMALY":77.6309,"EPHEMERIS_TYPE":0,"CLASSIFICATION_TYPE":"U","NORAD_CAT_ID":62729,"ELEMENT_SET_NO":999,"REV_AT_EPOCH":6276,"BSTAR":0.0013206527,"MEAN_MOTION_DOT":0.00037616,"MEAN_MOTION_DDOT":0}]
